CZ-4B R/B               
1 28059U 03049C   16242.76992380  .00000005  00000-0  13291-4 0  9994
2 28059  98.6003 116.2098 0051239  56.4691 350.7244 14.52453060681370
CZ-2C R/B               
1 28222U 04012C   16242.99971491  .00000776  00000-0  52160-4 0  9995
2 28222  97.4815 199.8690 0050708 103.7803 298.6650 15.08642686676704
SL-16 R/B               
1 28353U 04021B   16242.79927182 -.00000068  00000-0 -10730-4 0  9999
2 28353  71.0018 329.5469 0007234 277.3371  82.6929 14.14175325630956
CZ-2C R/B               
1 28480U 04046B   16242.91786780  .00000001  00000-0  16149-4 0  9993
2 28480  98.1887 351.9742 0142134   4.6762 127.7353 14.25604411612719
ARIANE 5 R/B            
1 28499U 04049H   16243.22306672  .00000114  00000-0  21416-4 0  9997
2 28499  98.1054 318.1669 0093917  75.0935 346.4547 14.79725508630968
CZ-2D R/B               
1 28738U 05024B   16242.74057043  .00000680  00000-0  44914-4 0  9994
2 28738  97.5363 278.7474 0010785 289.7503  70.2563 15.10687382611807
SUZAKU (ASTRO-EII)      
1 28773U 05025A   16242.80046056  .00001655  00000-0  81999-4 0  9990
2 28773  31.3837  24.9345 0005000 305.1105  54.9073 15.14981992613132
ALOS (DAICHI)           
1 28931U 06002A   16242.98378913  .00000045  00000-0  17584-4 0  9992
2 28931  97.8782 278.3997 0002026 113.3323 246.8094 14.62229693564908
H-2A R/B                
1 28932U 06002B   16242.86606791  .00000278  00000-0  32443-4 0  9997
2 28932  98.2075 148.1008 0090437 184.9988 217.2648 14.90995431574392
AKARI (ASTRO-F)         
1 28939U 06005A   16242.88207359  .00006829  00000-0  22085-3 0  9994
2 28939  98.2486  47.0188 0113793 114.7867 246.5258 15.26315602568626
RESURS-DK 1             
1 29228U 06021A   16243.36121644  .00000256  00000-0  26872-4 0  9997
2 29228  69.9352 117.9056 0002219  33.4061 326.7239 15.01968261564432
GENESIS 1               
1 29252U 06029A   16242.89525434  .00000878  00000-0  55442-4 0  9999
2 29252  64.5055 156.4723 0022704 223.8431 227.3483 15.16185178557574
CZ-4B R/B               
1 29507U 06046C   16243.15081400  .00000882  00000-0  74946-4 0  9996
2 29507  97.7851 244.4524 0043746 158.2312 202.0783 14.99803058537412
CZ-2C R/B               
1 31114U 07010B   16242.81851333 -.00000001  00000-0  18827-4 0  9997
2 31114  98.4087 154.1274 0059501 342.4459  17.4661 14.19214047486177
COSMO-SKYMED 1          
1 31598U 07023A   16243.33898687  .00000193  00000-0  30826-4 0  9992
2 31598  97.8764  65.5542 0001434  82.5594 277.5801 14.82165740499360
GENESIS 2               
1 31789U 07028A   16243.17833622  .00000847  00000-0  54045-4 0  9994
2 31789  64.5041 192.4820 0051338 257.4417 102.0959 15.15434986504793
COSMOS 2428             
1 31792U 07029A   16243.38096730 -.00000326  00000-0 -15096-3 0  9999
2 31792  70.9301 302.5983 0010231 345.3542  14.7281 14.12325942473018
SL-16 R/B               
1 31793U 07029B   16242.58120682 -.00000186  00000-0 -72169-4 0  9994
2 31793  70.9752 281.6785 0002903 267.7166 254.3767 14.14368907473440
KORONAS-FOTON           
1 33504U 09003A   16242.89363243  .00000271  00000-0  12963-4 0  9995
2 33504  82.4453 162.3638 0020778  39.9652 320.3104 15.14423586417284
TIANGONG 1              
1 37820U 11053A   16243.27094063  .00014683  00000-0  14723-3 0  9999
2 37820  42.7612 163.4310 0015026 200.6960 287.2759 15.65184425282181
CZ-3B R/B               
1 38253U 12018D   16243.52206581  .00189487  00000-0  37133-3 0  9995
2 38253  54.9677 106.8890 3365230 268.3368  53.6618  8.87983572 97496
H-2A R/B                
1 38341U 12025E   16243.26284469  .00000304  00000-0  43711-4 0  9993
2 38341  98.4731 297.4660 0056379  14.8821 345.4034 14.83383280231741
CUSAT 2 & FALCON 9 R/B  
1 39271U 13055G   16242.80194687  .00006930  00000-0  18456-3 0  9999
2 39271  80.9709 304.3363 0651224 341.5589  16.2932 14.32717108150838
ALOS-2                  
1 39766U 14029A   16243.29375043 -.00000391  00000-0 -45531-4 0  9993
2 39766  97.9218 338.8028 0001468  82.8317 277.3092 14.79467533122597
ASTRO-H (HITOMI)        
1 41337U 16012A   16242.91178674  .00000486  00000-0  33102-4 0  9997
2 41337  31.0052 164.2976 0012403  44.1040 316.0582 14.98118833 29203
AL-1 (AOLONG 1)         
1 41629U 16042F   16239.65613786  .02812959  76394-5  11024-3 0  9999
2 41629  40.7954   1.0182 0028766 314.0142  46.0026 16.40441923 10013
